[{"OBJECT_NAME":"STARLINK-3451","OBJECT_ID":"2022-016AM","EPOCH":"2026-03-09T22:27:09.664128","MEAN_MOTION":15.08833283,"ECCENTRICITY":0.00014225,"INCLINATION":53.2187,"RA_OF_ASC_NODE":318.1996,"ARG_OF_PERICENTER":88.2915,"MEAN_ANOMALY":271.8241,"EPHEMERIS_TYPE":0,"CLASSIFICATION_TYPE":"U","NORAD_CAT_ID":51749,"ELEMENT_SET_NO":999,"REV_AT_EPOCH":22359,"BSTAR":0.00016258917,"MEAN_MOTION_DOT":2.3e-5,"MEAN_MOTION_DDOT":0},{"OBJECT_NAME":"COSMOS 2535 DEB","OBJECT_ID":"2019-039J","EPOCH":"2026-03-09T22:02:27.714912","MEAN_MOTION":15.13627487,"ECCENTRICITY":0.00116202,"INCLINATION":97.5293,"RA_OF_ASC_NODE":109.4577,"ARG_OF_PERICENTER":13.0457,"MEAN_ANOMALY":347.1072,"EPHEMERIS_TYPE":0,"CLASSIFICATION_TYPE":"U","NORAD_CAT_ID":44632,"ELEMENT_SET_NO":999,"REV_AT_EPOCH":34998,"BSTAR":0.00064044542,"MEAN_MOTION_DOT":0.00011468,"MEAN_MOTION_DDOT":0}]
